start=new Date('2022-11-12T00:00:00.000Z').valueOf();
sats=[{"PERIAPSIS":"546.229","MEAN_MOTION":"15.06406373","TIME_SYSTEM":"UTC","FILE":"3651775","BSTAR":"0.00091077000000","GP_ID":"217489788","NORAD_CAT_ID":"45703","COUNTRY_CODE":"US","INCLINATION":"53.0528","DECAY_DATE":null,"ELEMENT_SET_NO":"999","PERIOD":"95.592","MEAN_ANOMALY":"255.3068","EPHEMERIS_TYPE":"0","CENTER_NAME":"EARTH","RCS_SIZE":"LARGE","RA_OF_ASC_NODE":"86.7220","ECCENTRICITY":"0.00013930","OBJECT_NAME":"STARLINK-1407","TLE_LINE1":"1 45703U 20035AY  22315.63672311  .00013313  00000-0  91077-3 0  9999","MEAN_ELEMENT_THEORY":"SGP4","LAUNCH_DATE":"2020-06-04","MEAN_MOTION_DOT":"0.00013313","TLE_LINE2":"2 45703  53.0528  86.7220 0001393 104.8076 255.3068 15.06406373136162","REV_AT_EPOCH":"13616","MEAN_MOTION_DDOT":"0.0000000000000","SEMIMAJOR_AXIS":"6925.329","EPOCH":"2022-11-11T15:16:52.876704","REF_FRAME":"TEME","CLASSIFICATION_TYPE":"U","OBJECT_TYPE":"PAYLOAD","ARG_OF_PERICENTER":"104.8076","OBJECT_ID":"2020-035AY","SITE":"AFETR","APOAPSIS":"548.159"},{"BSTAR":"0.00039328000000","FILE":"3651775","TIME_SYSTEM":"UTC","PERIAPSIS":"546.348","MEAN_MOTION":"15.06418262","DECAY_DATE":null,"INCLINATION":"53.0526","COUNTRY_CODE":"US","NORAD_CAT_ID":"45704","GP_ID":"217489507","EPHEMERIS_TYPE":"0","CENTER_NAME":"EARTH","MEAN_ANOMALY":"264.9235","PERIOD":"95.591","ELEMENT_SET_NO":"999","MEAN_ELEMENT_THEORY":"SGP4","TLE_LINE1":"1 45704U 20035AZ  22315.79518853  .00005584  00000-0  39328-3 0  9999","OBJECT_NAME":"STARLINK-1409","RA_OF_ASC_NODE":"116.0117","ECCENTRICITY":"0.00011690","RCS_SIZE":"LARGE","MEAN_MOTION_DOT":"0.00005584","LAUNCH_DATE":"2020-06-04","REV_AT_EPOCH":"13577","TLE_LINE2":"2 45704  53.0526 116.0117 0001169  95.1888 264.9235 15.06418262135775","CLASSIFICATION_TYPE":"U","REF_FRAME":"TEME","EPOCH":"2022-11-11T19:05:04.288992","SEMIMAJOR_AXIS":"6925.293","MEAN_MOTION_DDOT":"0.0000000000000","APOAPSIS":"547.967","SITE":"AFETR","OBJECT_ID":"2020-035AZ","ARG_OF_PERICENTER":"95.1888","OBJECT_TYPE":"PAYLOAD"},{"ARG_OF_PERICENTER":"92.2219","OBJECT_ID":"2020-035BA","OBJECT_TYPE":"PAYLOAD","APOAPSIS":"548.207","SITE":"AFETR","EPOCH":"2022-11-11T19:43:35.250528","SEMIMAJOR_AXIS":"6925.368","MEAN_MOTION_DDOT":"0.0000000000000","CLASSIFICATION_TYPE":"U","REF_FRAME":"TEME","TLE_LINE2":"2 45705  53.0543 115.8713 0001407  92.2219 267.8931 15.06393645135362","REV_AT_EPOCH":"13536","MEAN_MOTION_DOT":"0.00000116","LAUNCH_DATE":"2020-06-04","ECCENTRICITY":"0.00014070","RA_OF_ASC_NODE":"115.8713","RCS_SIZE":"LARGE","TLE_LINE1":"1 45705U 20035BA  22315.82193577  .00000116  00000-0  26683-4 0  9993","MEAN_ELEMENT_THEORY":"SGP4","OBJECT_NAME":"STARLINK-1410","MEAN_ANOMALY":"267.8931","PERIOD":"95.593","ELEMENT_SET_NO":"999","EPHEMERIS_TYPE":"0","CENTER_NAME":"EARTH","NORAD_CAT_ID":"45705","GP_ID":"217466841","DECAY_DATE":null,"INCLINATION":"53.0543","COUNTRY_CODE":"US","TIME_SYSTEM":"UTC","PERIAPSIS":"546.259","MEAN_MOTION":"15.06393645","FILE":"3651659","BSTAR":"0.00002668300000"},{"ARG_OF_PERICENTER":"104.9815","OBJECT_ID":"2020-035BB","OBJECT_TYPE":"PAYLOAD","APOAPSIS":"548.097","SITE":"AFETR","EPOCH":"2022-11-11T19:31:39.003168","SEMIMAJOR_AXIS":"6925.376","MEAN_MOTION_DDOT":"0.0000000000000","CLASSIFICATION_TYPE":"U","REF_FRAME":"TEME","TLE_LINE2":"2 45706  53.0556  85.9133 0001237 104.9815 255.1311 15.06391132136186","REV_AT_EPOCH":"13618","MEAN_MOTION_DOT":"0.00000174","LAUNCH_DATE":"2020-06-04","RA_OF_ASC_NODE":"85.9133","ECCENTRICITY":"0.00012370","RCS_SIZE":"LARGE","MEAN_ELEMENT_THEORY":"SGP4","TLE_LINE1":"1 45706U 20035BB  22315.81364587  .00000174  00000-0  30551-4 0  9997","OBJECT_NAME":"STARLINK-1411","MEAN_ANOMALY":"255.1311","PERIOD":"95.593","ELEMENT_SET_NO":"999","EPHEMERIS_TYPE":"0","CENTER_NAME":"EARTH","NORAD_CAT_ID":"45706","GP_ID":"217488535","INCLINATION":"53.0556","DECAY_DATE":null,"COUNTRY_CODE":"US","PERIAPSIS":"546.384","MEAN_MOTION":"15.06391132","TIME_SYSTEM":"UTC","BSTAR":"0.00003055100000","FILE":"3651775"},{"SITE":"AFETR","APOAPSIS":"548.073","OBJECT_TYPE":"PAYLOAD","ARG_OF_PERICENTER":"86.2339","OBJECT_ID":"2020-035BC","REF_FRAME":"TEME","CLASSIFICATION_TYPE":"U","MEAN_MOTION_DDOT":"0.0000000000000","SEMIMAJOR_AXIS":"6925.346","EPOCH":"2022-11-11T19:26:21.050304","REV_AT_EPOCH":"13578","TLE_LINE2":"2 45707  53.0558  85.9510 0001245  86.2339 273.8792 15.06400851135784","LAUNCH_DATE":"2020-06-04","MEAN_MOTION_DOT":"0.00003144","OBJECT_NAME":"STARLINK-1412","TLE_LINE1":"1 45707U 20035BC  22315.80996586  .00003144  00000-0  22985-3 0  9998","MEAN_ELEMENT_THEORY":"SGP4","RCS_SIZE":"LARGE","RA_OF_ASC_NODE":"85.9510","ECCENTRICITY":"0.00012450","EPHEMERIS_TYPE":"0","CENTER_NAME":"EARTH","ELEMENT_SET_NO":"999","PERIOD":"95.592","MEAN_ANOMALY":"273.8792","COUNTRY_CODE":"US","DECAY_DATE":null,"INCLINATION":"53.0558","GP_ID":"217467137","NORAD_CAT_ID":"45707","FILE":"3651659","BSTAR":"0.00022985000000","MEAN_MOTION":"15.06400851","PERIAPSIS":"546.349","TIME_SYSTEM":"UTC"},{"BSTAR":"0.00017271000000","FILE":"3651775","TIME_SYSTEM":"UTC","PERIAPSIS":"546.353","MEAN_MOTION":"15.06392154","COUNTRY_CODE":"US","INCLINATION":"53.0569","DECAY_DATE":null,"GP_ID":"217490007","NORAD_CAT_ID":"45708","CENTER_NAME":"EARTH","EPHEMERIS_TYPE":"0","ELEMENT_SET_NO":"999","PERIOD":"95.593","MEAN_ANOMALY":"259.6904","OBJECT_NAME":"STARLINK-1418","TLE_LINE1":"1 45708U 20035BD  22315.78415065  .00002291  00000-0  17271-3 0  9998","MEAN_ELEMENT_THEORY":"SGP4","RCS_SIZE":"LARGE","ECCENTRICITY":"0.00012770","RA_OF_ASC_NODE":"86.0543","LAUNCH_DATE":"2020-06-04","MEAN_MOTION_DOT":"0.00002291","REV_AT_EPOCH":"13619","TLE_LINE2":"2 45708  53.0569  86.0543 0001277 100.4229 259.6904 15.06392154136196","REF_FRAME":"TEME","CLASSIFICATION_TYPE":"U","MEAN_MOTION_DDOT":"0.0000000000000","SEMIMAJOR_AXIS":"6925.373","EPOCH":"2022-11-11T18:49:10.616160","SITE":"AFETR","APOAPSIS":"548.122","OBJECT_TYPE":"PAYLOAD","ARG_OF_PERICENTER":"100.4229","OBJECT_ID":"2020-035BD"},{"TLE_LINE2":"2 45709  53.0542  86.1961 0001140 113.8542 246.2567 15.06394280136142","REV_AT_EPOCH":"13614","LAUNCH_DATE":"2020-06-04","MEAN_MOTION_DOT":"0.00010299","OBJECT_TYPE":"PAYLOAD","OBJECT_ID":"2020-035BE","ARG_OF_PERICENTER":"113.8542","SITE":"AFETR","APOAPSIS":"548.021","MEAN_MOTION_DDOT":"0.0000000000000","SEMIMAJOR_AXIS":"6925.366","EPOCH":"2022-11-11T18:06:44.811648","REF_FRAME":"TEME","CLASSIFICATION_TYPE":"U","GP_ID":"217488788","NORAD_CAT_ID":"45709","COUNTRY_CODE":"US","INCLINATION":"53.0542","DECAY_DATE":null,"PERIAPSIS":"546.442","TIME_SYSTEM":"UTC","MEAN_MOTION":"15.06394280","FILE":"3651775","BSTAR":"0.00070941000000","RCS_SIZE":"LARGE","RA_OF_ASC_NODE":"86.1961","ECCENTRICITY":"0.00011400","OBJECT_NAME":"STARLINK-1421","TLE_LINE1":"1 45709U 20035BE  22315.75468532  .00010299  00000-0  70941-3 0  9993","MEAN_ELEMENT_THEORY":"SGP4","ELEMENT_SET_NO":"999","PERIOD":"95.593","MEAN_ANOMALY":"246.2567","EPHEMERIS_TYPE":"0","CENTER_NAME":"EARTH"},{"REV_AT_EPOCH":"13619","TLE_LINE2":"2 45710  53.0544  85.9161 0001413 102.0730 258.0418 15.06393294136192","MEAN_MOTION_DOT":"0.00003698","LAUNCH_DATE":"2020-06-04","APOAPSIS":"548.213","SITE":"AFETR","OBJECT_ID":"2020-035BF","ARG_OF_PERICENTER":"102.0730","OBJECT_TYPE":"PAYLOAD","CLASSIFICATION_TYPE":"U","REF_FRAME":"TEME","EPOCH":"2022-11-11T19:36:56.880000","SEMIMAJOR_AXIS":"6925.369","MEAN_MOTION_DDOT":"0.0000000000000","DECAY_DATE":null,"INCLINATION":"53.0544","COUNTRY_CODE":"US","NORAD_CAT_ID":"45710","GP_ID":"217489033","FILE":"3651775","BSTAR":"0.00026707000000","PERIAPSIS":"546.256","MEAN_MOTION":"15.06393294","TIME_SYSTEM":"UTC","TLE_LINE1":"1 45710U 20035BF  22315.81732500  .00003698  00000-0  26707-3 0  9997","MEAN_ELEMENT_THEORY":"SGP4","OBJECT_NAME":"STARLINK-1423","ECCENTRICITY":"0.00014130","RA_OF_ASC_NODE":"85.9161","RCS_SIZE":"LARGE","CENTER_NAME":"EARTH","EPHEMERIS_TYPE":"0","MEAN_ANOMALY":"258.0418","PERIOD":"95.593","ELEMENT_SET_NO":"999"},{"SITE":"AFETR","APOAPSIS":"548.099","ARG_OF_PERICENTER":"108.9156","OBJECT_ID":"2020-035BG","OBJECT_TYPE":"PAYLOAD","REF_FRAME":"TEME","CLASSIFICATION_TYPE":"U","SEMIMAJOR_AXIS":"6925.372","MEAN_MOTION_DDOT":"0.0000000000000","EPOCH":"2022-11-11T19:10:24.106368","REV_AT_EPOCH":"13578","TLE_LINE2":"2 45711  53.0555  85.9849 0001245 108.9156 251.1968 15.06392453135782","LAUNCH_DATE":"2020-06-04","MEAN_MOTION_DOT":"0.00004805","OBJECT_NAME":"STARLINK-1433","MEAN_ELEMENT_THEORY":"SGP4","TLE_LINE1":"1 45711U 20035BG  22315.79889012  .00004805  00000-0  34131-3 0  9997","RCS_SIZE":"LARGE","RA_OF_ASC_NODE":"85.9849","ECCENTRICITY":"0.00012450","EPHEMERIS_TYPE":"0","CENTER_NAME":"EARTH","ELEMENT_SET_NO":"999","MEAN_ANOMALY":"251.1968","PERIOD":"95.593","COUNTRY_CODE":"US","INCLINATION":"53.0555","DECAY_DATE":null,"NORAD_CAT_ID":"45711","GP_ID":"217467205","FILE":"3651664","BSTAR":"0.00034131000000","MEAN_MOTION":"15.06392453","PERIAPSIS":"546.374","TIME_SYSTEM":"UTC"},{"PERIOD":"95.593","MEAN_ANOMALY":"251.5040","ELEMENT_SET_NO":"999","CENTER_NAME":"EARTH","EPHEMERIS_TYPE":"0","RA_OF_ASC_NODE":"86.2977","ECCENTRICITY":"0.00013470","RCS_SIZE":"LARGE","TLE_LINE1":"1 45712U 20035BH  22315.72886784  .00000386  00000-0  44833-4 0  9995","MEAN_ELEMENT_THEORY":"SGP4","OBJECT_NAME":"STARLINK-1434","PERIAPSIS":"546.316","TIME_SYSTEM":"UTC","MEAN_MOTION":"15.06388619","BSTAR":"0.00004483300000","FILE":"3651775","GP_ID":"217489508","NORAD_CAT_ID":"45712","INCLINATION":"53.0546","DECAY_DATE":null,"COUNTRY_CODE":"US","EPOCH":"2022-11-11T17:29:34.181376","MEAN_MOTION_DDOT":"0.0000000000000","SEMIMAJOR_AXIS":"6925.383","CLASSIFICATION_TYPE":"U","REF_FRAME":"TEME","OBJECT_TYPE":"PAYLOAD","OBJECT_ID":"2020-035BH","ARG_OF_PERICENTER":"108.6095","APOAPSIS":"548.181","SITE":"AFETR","MEAN_MOTION_DOT":"0.00000386","LAUNCH_DATE":"2020-06-04","TLE_LINE2":"2 45712  53.0546  86.2977 0001347 108.6095 251.5040 15.06388619136180","REV_AT_EPOCH":"13618"}];
